{
    "links": {
        "self": "http://www.neowsapp.com/rest/v1/neo/3715095?api_key=iIulBulltgU6a56xZRHN4H3l9WmuAYTsLGpBGhQ2"
    },
    "id": "3715095",
    "neo_reference_id": "3715095",
    "name": "(2015 FY284)",
    "designation": "2015 FY284",
    "nasa_jpl_url": "http://ssd.jpl.nasa.gov/sbdb.cgi?sstr=3715095",
    "absolute_magnitude_h": 21.7,
    "estimated_diameter": {
        "kilometers": {
            "estimated_diameter_min": 0.1214940408,
            "estimated_diameter_max": 0.2716689341
        },
        "meters": {
            "estimated_diameter_min": 121.4940407996,
            "estimated_diameter_max": 271.6689340891
        },
        "miles": {
            "estimated_diameter_min": 0.0754928736,
            "estimated_diameter_max": 0.1688071972
        },
        "feet": {
            "estimated_diameter_min": 398.6025088171,
            "estimated_diameter_max": 891.3023057169
        }
    },
    "is_potentially_hazardous_asteroid": false,
    "close_approach_data": [
        {
            "close_approach_date": "2013-04-03",
            "close_approach_date_full": "2013-Apr-03 19:19",
            "epoch_date_close_approach": 1365016740000,
            "relative_velocity": {
                "kilometers_per_second": "12.5059853918",
                "kilometers_per_hour": "45021.547410619",
                "miles_per_hour": "27974.6387230038"
            },
            "miss_distance": {
                "astronomical": "0.4259280861",
                "lunar": "165.6860254929",
                "kilometers": "63717934.453736607",
                "miles": "39592488.5414628966"
            },
            "orbiting_body": "Earth"
        },
        {
            "close_approach_date": "2014-11-22",
            "close_approach_date_full": "2014-Nov-22 01:49",
            "epoch_date_close_approach": 1416620940000,
            "relative_velocity": {
                "kilometers_per_second": "13.0623694941",
                "kilometers_per_hour": "47024.5301787578",
                "miles_per_hour": "29219.2143213509"
            },
            "miss_distance": {
                "astronomical": "0.4091957274",
                "lunar": "159.1771379586",
                "kilometers": "61214809.232140638",
                "miles": "38037118.6522232844"
            },
            "orbiting_body": "Earth"
        },
        {
            "close_approach_date": "2015-03-29",
            "close_approach_date_full": "2015-Mar-29 03:49",
            "epoch_date_close_approach": 1427600940000,
            "relative_velocity": {
                "kilometers_per_second": "14.2059833726",
                "kilometers_per_hour": "51141.5401413244",
                "miles_per_hour": "31777.3642061468"
            },
            "miss_distance": {
                "astronomical": "0.2067408818",
                "lunar": "80.4222030202",
                "kilometers": "30927995.559201766",
                "miles": "19217765.3008697308"
            },
            "orbiting_body": "Earth"
        },
        {
            "close_approach_date": "2016-11-07",
            "close_approach_date_full": "2016-Nov-07 09:07",
            "epoch_date_close_approach": 1478509620000,
            "relative_velocity": {
                "kilometers_per_second": "12.661149418",
                "kilometers_per_hour": "45580.1379048742",
                "miles_per_hour": "28321.7251331703"
            },
            "miss_distance": {
                "astronomical": "0.4894978231",
                "lunar": "190.4146531859",
                "kilometers": "73227831.705396797",
                "miles": "45501664.6815059186"
            },
            "orbiting_body": "Earth"
        },
        {
            "close_approach_date": "2017-04-04",
            "close_approach_date_full": "2017-Apr-04 15:49",
            "epoch_date_close_approach": 1491320940000,
            "relative_velocity": {
                "kilometers_per_second": "20.5531021222",
                "kilometers_per_hour": "73991.167639744",
                "miles_per_hour": "45975.2341370398"
            },
            "miss_distance": {
                "astronomical": "0.416937117",
                "lunar": "162.188538513",
                "kilometers": "62372904.62714079",
                "miles": "38756725.762051302"
            },
            "orbiting_body": "Earth"
        }
    ],
    "orbital_data": {
        "orbit_id": "16",
        "orbit_determination_date": "2018-02-10 07:06:26",
        "first_observation_date": "2015-03-28",
        "last_observation_date": "2015-04-17",
        "data_arc_in_days": 20,
        "observations_used": 87,
        "orbit_uncertainty": "7",
        "minimum_orbit_intersection": ".205799",
        "jupiter_tisserand_invariant": "4.158",
        "epoch_osculation": "2459000.5",
        "eccentricity": ".3589329213072895",
        "semi_major_axis": "1.619575282424624",
        "inclination": "24.88194011007695",
        "ascending_node_longitude": "20.63626498735933",
        "orbital_period": "752.8355812269403",
        "perihelion_distance": "1.038256395026875",
        "perihelion_argument": "110.5532509640239",
        "aphelion_distance": "2.200894169822373",
        "perihelion_time": "2459312.808508929794",
        "mean_anomaly": "210.6565496924438",
        "mean_motion": ".4781920634161405",
        "equinox": "J2000",
        "orbit_class": {
            "orbit_class_type": "AMO",
            "orbit_class_description": "Near-Earth asteroid orbits similar to that of 1221 Amor",
            "orbit_class_range": "1.017 AU < q (perihelion) < 1.3 AU"
        }
    },
    "is_sentry_object": false
}